IRIDIUM 116             
1 43072U 17083C   25089.69651919  .00000207  00000+0  66765-4 0  9997
2 43072  86.3994 147.4159 0002081 101.7225 258.4204 14.34216006380606
IRIDIUM 130             
1 43073U 17083D   25090.15318714  .00000157  00000+0  48990-4 0  9998
2 43073  86.4002 147.4570 0001873  96.6653 263.4756 14.34215844380618
IRIDIUM 151             
1 43074U 17083E   25089.70920543  .00000190  00000+0  60769-4 0  9992
2 43074  86.3995 147.4583 0002131 100.6161 259.5275 14.34215808380578
IRIDIUM 134             
1 43075U 17083F   25089.67749099  .00000203  00000+0  65341-4 0  9990
2 43075  86.3997 147.4736 0001933  93.4608 266.6809 14.34217522380538
IRIDIUM 137             
1 43076U 17083G   25089.69017819  .00000522  00000+0  17930-3 0  9995
2 43076  86.3997 147.5519 0002234 111.3956 248.7478 14.34217715380605
IRIDIUM 141             
1 43077U 17083H   25089.68383495  .00000486  00000+0  16663-3 0  9992
2 43077  86.3992 147.4106 0002394  89.2151 270.9319 14.34217918380605
IRIDIUM 153             
1 43078U 17083J   25089.77555279  .00000275  00000+0  91171-4 0  9998
2 43078  86.3928 115.8641 0002612  83.5215 276.6278 14.34217638381729
IRIDIUM 131             
1 43079U 17083K   25090.08976045  .00000166  00000+0  52218-4 0  9991
2 43079  86.3999 147.3975 0002465  96.2053 263.9424 14.34216741380595
